<?xml version="1.0" encoding="UTF-8"?>
<gpx creator="StravaGPX" xmlns:xsi="http://www.w3.org/2001/XMLSchema-instance" xsi:schemaLocation="http://www.topografix.com/GPX/1/1 http://www.topografix.com/GPX/1/1/gpx.xsd" version="1.1" xmlns="http://www.topografix.com/GPX/1/1">
 <metadata>
  <name>Sentier du Ruisseau-de-la-Brasserie Pathway-Sentier du Lac Leamy Pathway-Rideau Canal Western Pathway</name>
  <author>
   <name>Shubham Sharan</name>
  </author>
  <copyright author="OpenStreetMap contributors">
   <year>2020</year>
   <license>https://www.openstreetmap.org/copyright</license>
  </copyright>
 </metadata>
 <trk>
  <name>Sentier du Ruisseau-de-la-Brasserie Pathway-Sentier du Lac Leamy Pathway-Rideau Canal Western Pathway</name>
  <link href=""/>
  <type>Ride</type>
  <trkseg>
   <trkpt lat="45.37089" lon="-75.70163000000001">
    <ele>80.99000000000001</ele>
   </trkpt>
   <trkpt lat="45.370580000000004" lon="-75.70134">
    <ele>80.99000000000001</ele>
   </trkpt>
   <trkpt lat="45.37017" lon="-75.70232">
    <ele>81.28</ele>
   </trkpt>
   <trkpt lat="45.370050000000006" lon="-75.70243">
    <ele>81.97</ele>
   </trkpt>
   <trkpt lat="45.37001" lon="-75.70234">
    <ele>81.98</ele>
   </trkpt>
   <trkpt lat="45.369930000000004" lon="-75.70241">
    <ele>82.05000000000001</ele>
   </trkpt>
   <trkpt lat="45.369980000000005" lon="-75.70251">
    <ele>81.94000000000001</ele>
   </trkpt>
   <trkpt lat="45.37022" lon="-75.70339000000001">
    <ele>81.49000000000001</ele>
   </trkpt>
   <trkpt lat="45.3703" lon="-75.70349">
    <ele>81.49000000000001</ele>
   </trkpt>
   <trkpt lat="45.370580000000004" lon="-75.70452">
    <ele>81.0</ele>
   </trkpt>
   <trkpt lat="45.37093000374475" lon="-75.70544999416848">
    <ele>80.10000000000001</ele>
   </trkpt>
   <trkpt lat="45.371280000000006" lon="-75.70638000000001">
    <ele>80.09</ele>
   </trkpt>
   <trkpt lat="45.37162000000001" lon="-75.70738">
    <ele>77.95</ele>
   </trkpt>
   <trkpt lat="45.37171" lon="-75.70756">
    <ele>77.81</ele>
   </trkpt>
   <trkpt lat="45.37178" lon="-75.70762">
    <ele>77.47000000000001</ele>
   </trkpt>
   <trkpt lat="45.371930000000006" lon="-75.70787">
    <ele>76.34</ele>
   </trkpt>
   <trkpt lat="45.37223" lon="-75.70822000000001">
    <ele>75.52</ele>
   </trkpt>
   <trkpt lat="45.37245" lon="-75.70836000000001">
    <ele>75.37</ele>
   </trkpt>
   <trkpt lat="45.37276000000001" lon="-75.70842">
    <ele>75.61000000000001</ele>
   </trkpt>
   <trkpt lat="45.373070000000006" lon="-75.70842">
    <ele>76.02</ele>
   </trkpt>
   <trkpt lat="45.37323000000001" lon="-75.70841">
    <ele>76.50000000000001</ele>
   </trkpt>
   <trkpt lat="45.37342" lon="-75.70833">
    <ele>77.02000000000001</ele>
   </trkpt>
   <trkpt lat="45.373610000000006" lon="-75.70822000000001">
    <ele>77.57</ele>
   </trkpt>
   <trkpt lat="45.373740000000005" lon="-75.7082">
    <ele>77.77000000000001</ele>
   </trkpt>
   <trkpt lat="45.37377" lon="-75.70817000000001">
    <ele>77.77000000000001</ele>
   </trkpt>
   <trkpt lat="45.37395" lon="-75.7081">
    <ele>77.54</ele>
   </trkpt>
   <trkpt lat="45.37435000000001" lon="-75.70784">
    <ele>76.78</ele>
   </trkpt>
   <trkpt lat="45.37458" lon="-75.70773000000001">
    <ele>77.83000000000001</ele>
   </trkpt>
   <trkpt lat="45.375060000000005" lon="-75.70753">
    <ele>79.32</ele>
   </trkpt>
   <trkpt lat="45.37529000000001" lon="-75.70747">
    <ele>80.17</ele>
   </trkpt>
   <trkpt lat="45.375840000000004" lon="-75.70727000000001">
    <ele>80.59</ele>
   </trkpt>
   <trkpt lat="45.376290000000004" lon="-75.70694">
    <ele>80.56</ele>
   </trkpt>
   <trkpt lat="45.376430000000006" lon="-75.70676">
    <ele>80.42</ele>
   </trkpt>
   <trkpt lat="45.37698500067306" lon="-75.70632500438903">
    <ele>79.26</ele>
   </trkpt>
   <trkpt lat="45.37754" lon="-75.70589000000001">
    <ele>77.80000000000001</ele>
   </trkpt>
   <trkpt lat="45.378300003253045" lon="-75.70528334960846">
    <ele>76.24</ele>
   </trkpt>
   <trkpt lat="45.37906000329467" lon="-75.70467668290888">
    <ele>76.31</ele>
   </trkpt>
   <trkpt lat="45.37982" lon="-75.70407">
    <ele>75.9</ele>
   </trkpt>
   <trkpt lat="45.38004" lon="-75.70398">
    <ele>75.93</ele>
   </trkpt>
   <trkpt lat="45.38033" lon="-75.70393">
    <ele>75.96</ele>
   </trkpt>
   <trkpt lat="45.38046000000001" lon="-75.70398">
    <ele>75.96</ele>
   </trkpt>
   <trkpt lat="45.380840000000006" lon="-75.7042">
    <ele>76.02</ele>
   </trkpt>
   <trkpt lat="45.38152800352639" lon="-75.70464997809086">
    <ele>75.89000000000001</ele>
   </trkpt>
   <trkpt lat="45.38221600528588" lon="-75.70509996713331">
    <ele>75.78</ele>
   </trkpt>
   <trkpt lat="45.38290400527846" lon="-75.7055499671279">
    <ele>76.67</ele>
   </trkpt>
   <trkpt lat="45.38359200350399" lon="-75.7059999780751">
    <ele>77.06</ele>
   </trkpt>
   <trkpt lat="45.384280000000004" lon="-75.70645">
    <ele>77.95</ele>
   </trkpt>
   <trkpt lat="45.38468" lon="-75.70666">
    <ele>78.03</ele>
   </trkpt>
   <trkpt lat="45.38486" lon="-75.70671">
    <ele>77.97000000000001</ele>
   </trkpt>
   <trkpt lat="45.385180000000005" lon="-75.70671">
    <ele>78.08000000000001</ele>
   </trkpt>
   <trkpt lat="45.38572500012041" lon="-75.70669000018846">
    <ele>78.15</ele>
   </trkpt>
   <trkpt lat="45.38627" lon="-75.70667">
    <ele>78.69000000000001</ele>
   </trkpt>
   <trkpt lat="45.387130000012476" lon="-75.70666666676804">
    <ele>78.22000000000001</ele>
   </trkpt>
   <trkpt lat="45.387990000024864" lon="-75.70666333343468">
    <ele>79.48</ele>
   </trkpt>
   <trkpt lat="45.388850000000005" lon="-75.70666">
    <ele>81.53</ele>
   </trkpt>
   <trkpt lat="45.38924" lon="-75.70674000000001">
    <ele>82.28</ele>
   </trkpt>
   <trkpt lat="45.38978" lon="-75.70704">
    <ele>83.11</ele>
   </trkpt>
   <trkpt lat="45.389900000000004" lon="-75.70711">
    <ele>83.2</ele>
   </trkpt>
   <trkpt lat="45.390040000000006" lon="-75.70713">
    <ele>83.36</ele>
   </trkpt>
   <trkpt lat="45.39032" lon="-75.70707">
    <ele>83.7</ele>
   </trkpt>
   <trkpt lat="45.39041" lon="-75.70711">
    <ele>83.62000000000002</ele>
   </trkpt>
   <trkpt lat="45.390640000000005" lon="-75.70736000000001">
    <ele>83.13000000000001</ele>
   </trkpt>
   <trkpt lat="45.390910000000005" lon="-75.70752">
    <ele>82.82000000000001</ele>
   </trkpt>
   <trkpt lat="45.390980000000006" lon="-75.70762">
    <ele>82.85000000000001</ele>
   </trkpt>
   <trkpt lat="45.39128" lon="-75.70778">
    <ele>82.42</ele>
   </trkpt>
   <trkpt lat="45.39173000027212" lon="-75.70800499823414">
    <ele>81.39</ele>
   </trkpt>
   <trkpt lat="45.39218" lon="-75.70823">
    <ele>80.05000000000001</ele>
   </trkpt>
   <trkpt lat="45.392590000000006" lon="-75.70841">
    <ele>77.78</ele>
   </trkpt>
   <trkpt lat="45.393080000000005" lon="-75.70845">
    <ele>74.51</ele>
   </trkpt>
   <trkpt lat="45.39357000006467" lon="-75.70845">
    <ele>72.46000000000001</ele>
   </trkpt>
   <trkpt lat="45.39406" lon="-75.70845">
    <ele>69.65</ele>
   </trkpt>
   <trkpt lat="45.394220000000004" lon="-75.70844000000001">
    <ele>68.93</ele>
   </trkpt>
   <trkpt lat="45.39446" lon="-75.70836000000001">
    <ele>67.94</ele>
   </trkpt>
   <trkpt lat="45.39455" lon="-75.70831000000001">
    <ele>67.59</ele>
   </trkpt>
   <trkpt lat="45.39522" lon="-75.7077">
    <ele>66.31</ele>
   </trkpt>
   <trkpt lat="45.39547" lon="-75.70797">
    <ele>66.13000000000001</ele>
   </trkpt>
   <trkpt lat="45.395950000000006" lon="-75.70837">
    <ele>65.38000000000001</ele>
   </trkpt>
   <trkpt lat="45.3962" lon="-75.70855">
    <ele>65.17</ele>
   </trkpt>
   <trkpt lat="45.39672" lon="-75.70886">
    <ele>65.09</ele>
   </trkpt>
   <trkpt lat="45.396860000000004" lon="-75.70891">
    <ele>65.25999999999999</ele>
   </trkpt>
   <trkpt lat="45.397040000000004" lon="-75.70904">
    <ele>65.07000000000001</ele>
   </trkpt>
   <trkpt lat="45.39734000000001" lon="-75.70921000000001">
    <ele>64.39</ele>
   </trkpt>
   <trkpt lat="45.39753" lon="-75.70935">
    <ele>64.12</ele>
   </trkpt>
   <trkpt lat="45.39828000000001" lon="-75.7098">
    <ele>63.54</ele>
   </trkpt>
   <trkpt lat="45.39889" lon="-75.71019000000001">
    <ele>62.71</ele>
   </trkpt>
   <trkpt lat="45.39954000079445" lon="-75.71056999572465">
    <ele>62.52</ele>
   </trkpt>
   <trkpt lat="45.40019" lon="-75.71095000000001">
    <ele>64.32000000000001</ele>
   </trkpt>
   <trkpt lat="45.40084" lon="-75.71139000000001">
    <ele>62.44</ele>
   </trkpt>
   <trkpt lat="45.401520000000005" lon="-75.71180000000001">
    <ele>62.07000000000001</ele>
   </trkpt>
   <trkpt lat="45.40203" lon="-75.71208">
    <ele>62.95</ele>
   </trkpt>
   <trkpt lat="45.402190000000004" lon="-75.71205">
    <ele>62.61</ele>
   </trkpt>
   <trkpt lat="45.40223" lon="-75.71207000000001">
    <ele>62.61</ele>
   </trkpt>
   <trkpt lat="45.402280000000005" lon="-75.71204">
    <ele>62.61</ele>
   </trkpt>
   <trkpt lat="45.402450001510424" lon="-75.71144500190994">
    <ele>61.540000000000006</ele>
   </trkpt>
   <trkpt lat="45.402620000000006" lon="-75.71085000000001">
    <ele>61.36000000000001</ele>
   </trkpt>
   <trkpt lat="45.40265" lon="-75.71085000000001">
    <ele>61.36000000000001</ele>
   </trkpt>
   <trkpt lat="45.402660000000004" lon="-75.71084">
    <ele>61.36000000000001</ele>
   </trkpt>
   <trkpt lat="45.40316500050087" lon="-75.71113499743385">
    <ele>59.89000000000001</ele>
   </trkpt>
   <trkpt lat="45.403670000000005" lon="-75.71143000000001">
    <ele>59.59</ele>
   </trkpt>
   <trkpt lat="45.40393" lon="-75.71161000000001">
    <ele>60.190000000000005</ele>
   </trkpt>
   <trkpt lat="45.4037450016501" lon="-75.71224000234072">
    <ele>60.36</ele>
   </trkpt>
   <trkpt lat="45.403560000000006" lon="-75.71287000000001">
    <ele>61.07000000000001</ele>
   </trkpt>
   <trkpt lat="45.40354000000001" lon="-75.71302">
    <ele>61.230000000000004</ele>
   </trkpt>
   <trkpt lat="45.40355" lon="-75.71311">
    <ele>61.480000000000004</ele>
   </trkpt>
   <trkpt lat="45.40395" lon="-75.71373000000001">
    <ele>63.38</ele>
   </trkpt>
   <trkpt lat="45.40393" lon="-75.71383">
    <ele>63.79</ele>
   </trkpt>
   <trkpt lat="45.40395" lon="-75.71383">
    <ele>63.79</ele>
   </trkpt>
   <trkpt lat="45.40402" lon="-75.71394000000001">
    <ele>63.88</ele>
   </trkpt>
   <trkpt lat="45.404540000000004" lon="-75.71477">
    <ele>62.71</ele>
   </trkpt>
   <trkpt lat="45.404990001622664" lon="-75.71538999498621">
    <ele>62.06</ele>
   </trkpt>
   <trkpt lat="45.405440000000006" lon="-75.71601000000001">
    <ele>61.24</ele>
   </trkpt>
   <trkpt lat="45.40598000000001" lon="-75.71682000000001">
    <ele>60.50000000000001</ele>
   </trkpt>
   <trkpt lat="45.406060000000004" lon="-75.71696">
    <ele>60.440000000000005</ele>
   </trkpt>
   <trkpt lat="45.406130000000005" lon="-75.71714">
    <ele>60.440000000000005</ele>
   </trkpt>
   <trkpt lat="45.40646" lon="-75.71772">
    <ele>59.78000000000001</ele>
   </trkpt>
   <trkpt lat="45.40687500161845" lon="-75.71830499587887">
    <ele>58.410000000000004</ele>
   </trkpt>
   <trkpt lat="45.40729" lon="-75.71889">
    <ele>57.7</ele>
   </trkpt>
   <trkpt lat="45.407450000000004" lon="-75.71902">
    <ele>57.7</ele>
   </trkpt>
   <trkpt lat="45.407630000000005" lon="-75.71924">
    <ele>57.61</ele>
   </trkpt>
   <trkpt lat="45.40782" lon="-75.71939">
    <ele>57.290000000000006</ele>
   </trkpt>
   <trkpt lat="45.407920000000004" lon="-75.71952">
    <ele>57.010000000000005</ele>
   </trkpt>
   <trkpt lat="45.40827" lon="-75.72013000000001">
    <ele>56.760000000000005</ele>
   </trkpt>
   <trkpt lat="45.40855000120015" lon="-75.72064999746021">
    <ele>56.690000000000005</ele>
   </trkpt>
   <trkpt lat="45.40883" lon="-75.72117">
    <ele>57.470000000000006</ele>
   </trkpt>
   <trkpt lat="45.4093200024391" lon="-75.72190999365586">
    <ele>58.830000000000005</ele>
   </trkpt>
   <trkpt lat="45.40981" lon="-75.72265">
    <ele>57.32</ele>
   </trkpt>
   <trkpt lat="45.41004000141612" lon="-75.7232099978363">
    <ele>57.64</ele>
   </trkpt>
   <trkpt lat="45.410270000000004" lon="-75.72377">
    <ele>57.84</ele>
   </trkpt>
   <trkpt lat="45.410430000000005" lon="-75.72404">
    <ele>58.03</ele>
   </trkpt>
   <trkpt lat="45.41051" lon="-75.72422">
    <ele>58.11</ele>
   </trkpt>
   <trkpt lat="45.410680000000006" lon="-75.72448">
    <ele>58.690000000000005</ele>
   </trkpt>
   <trkpt lat="45.410900000000005" lon="-75.72471">
    <ele>59.07</ele>
   </trkpt>
   <trkpt lat="45.41122000000001" lon="-75.7249">
    <ele>58.470000000000006</ele>
   </trkpt>
   <trkpt lat="45.411390000000004" lon="-75.72498">
    <ele>57.830000000000005</ele>
   </trkpt>
   <trkpt lat="45.41145" lon="-75.72493">
    <ele>57.370000000000005</ele>
   </trkpt>
   <trkpt lat="45.411530000000006" lon="-75.72479000000001">
    <ele>56.410000000000004</ele>
   </trkpt>
   <trkpt lat="45.411660000000005" lon="-75.7243">
    <ele>55.06</ele>
   </trkpt>
   <trkpt lat="45.4117" lon="-75.72425000000001">
    <ele>54.27</ele>
   </trkpt>
   <trkpt lat="45.41178" lon="-75.72422">
    <ele>54.27</ele>
   </trkpt>
   <trkpt lat="45.411970000000004" lon="-75.72336">
    <ele>53.86000000000001</ele>
   </trkpt>
   <trkpt lat="45.41211000252423" lon="-75.72260000186098">
    <ele>54.230000000000004</ele>
   </trkpt>
   <trkpt lat="45.41225" lon="-75.72184">
    <ele>55.31</ele>
   </trkpt>
   <trkpt lat="45.41237" lon="-75.72144">
    <ele>55.580000000000005</ele>
   </trkpt>
   <trkpt lat="45.412470000000006" lon="-75.72121">
    <ele>55.63</ele>
   </trkpt>
   <trkpt lat="45.41292000000001" lon="-75.7205">
    <ele>56.63</ele>
   </trkpt>
   <trkpt lat="45.41310000000001" lon="-75.72032">
    <ele>56.92</ele>
   </trkpt>
   <trkpt lat="45.41342" lon="-75.71996">
    <ele>56.92</ele>
   </trkpt>
   <trkpt lat="45.41362" lon="-75.71985000000001">
    <ele>56.900000000000006</ele>
   </trkpt>
   <trkpt lat="45.414100000000005" lon="-75.71973000000001">
    <ele>56.580000000000005</ele>
   </trkpt>
   <trkpt lat="45.41452" lon="-75.71975">
    <ele>55.940000000000005</ele>
   </trkpt>
   <trkpt lat="45.4149" lon="-75.71987">
    <ele>55.39</ele>
   </trkpt>
   <trkpt lat="45.41552" lon="-75.72014">
    <ele>54.34</ele>
   </trkpt>
   <trkpt lat="45.4157" lon="-75.72015">
    <ele>54.37</ele>
   </trkpt>
   <trkpt lat="45.41617" lon="-75.72015">
    <ele>54.46</ele>
   </trkpt>
   <trkpt lat="45.41635" lon="-75.72014">
    <ele>54.46</ele>
   </trkpt>
   <trkpt lat="45.41659000000001" lon="-75.72005">
    <ele>54.25000000000001</ele>
   </trkpt>
   <trkpt lat="45.41675" lon="-75.71992">
    <ele>54.230000000000004</ele>
   </trkpt>
   <trkpt lat="45.416990000000006" lon="-75.71969">
    <ele>54.43000000000001</ele>
   </trkpt>
   <trkpt lat="45.41733000000001" lon="-75.71921">
    <ele>54.900000000000006</ele>
   </trkpt>
   <trkpt lat="45.417460000000005" lon="-75.71898">
    <ele>55.35</ele>
   </trkpt>
   <trkpt lat="45.417590000000004" lon="-75.71856000000001">
    <ele>55.59</ele>
   </trkpt>
   <trkpt lat="45.417770000000004" lon="-75.71839">
    <ele>55.470000000000006</ele>
   </trkpt>
   <trkpt lat="45.41800000200272" lon="-75.71772000260025">
    <ele>55.09</ele>
   </trkpt>
   <trkpt lat="45.41823" lon="-75.71705">
    <ele>55.25000000000001</ele>
   </trkpt>
   <trkpt lat="45.418290000000006" lon="-75.71683">
    <ele>55.06</ele>
   </trkpt>
   <trkpt lat="45.418310000000005" lon="-75.71665">
    <ele>55.06</ele>
   </trkpt>
   <trkpt lat="45.4183" lon="-75.71642">
    <ele>55.13</ele>
   </trkpt>
   <trkpt lat="45.41817" lon="-75.71610000000001">
    <ele>55.45</ele>
   </trkpt>
   <trkpt lat="45.418200000000006" lon="-75.71594">
    <ele>55.56</ele>
   </trkpt>
   <trkpt lat="45.418400000000005" lon="-75.71616">
    <ele>55.440000000000005</ele>
   </trkpt>
   <trkpt lat="45.41852" lon="-75.71621">
    <ele>55.470000000000006</ele>
   </trkpt>
   <trkpt lat="45.419085001388254" lon="-75.7167749943419">
    <ele>55.330000000000005</ele>
   </trkpt>
   <trkpt lat="45.419650000000004" lon="-75.71734000000001">
    <ele>55.160000000000004</ele>
   </trkpt>
   <trkpt lat="45.41986000000001" lon="-75.7175">
    <ele>54.690000000000005</ele>
   </trkpt>
   <trkpt lat="45.42053000000001" lon="-75.7179">
    <ele>53.1</ele>
   </trkpt>
   <trkpt lat="45.42096" lon="-75.71817">
    <ele>51.84</ele>
   </trkpt>
   <trkpt lat="45.42168" lon="-75.71867">
    <ele>51.58</ele>
   </trkpt>
   <trkpt lat="45.42212000000001" lon="-75.71891000000001">
    <ele>51.92</ele>
   </trkpt>
   <trkpt lat="45.422880000000006" lon="-75.71936000000001">
    <ele>52.63</ele>
   </trkpt>
   <trkpt lat="45.42316" lon="-75.71955000000001">
    <ele>52.92</ele>
   </trkpt>
   <trkpt lat="45.423480000000005" lon="-75.71968000000001">
    <ele>53.17</ele>
   </trkpt>
   <trkpt lat="45.424050000029354" lon="-75.71973999939564">
    <ele>54.50000000000001</ele>
   </trkpt>
   <trkpt lat="45.424620000000004" lon="-75.7198">
    <ele>56.78</ele>
   </trkpt>
   <trkpt lat="45.424640000000004" lon="-75.72009000000001">
    <ele>56.940000000000005</ele>
   </trkpt>
   <trkpt lat="45.42457" lon="-75.72126">
    <ele>56.61000000000001</ele>
   </trkpt>
   <trkpt lat="45.424490000000006" lon="-75.72215">
    <ele>56.35</ele>
   </trkpt>
   <trkpt lat="45.424380000000006" lon="-75.72295000000001">
    <ele>55.86000000000001</ele>
   </trkpt>
   <trkpt lat="45.42457" lon="-75.72307">
    <ele>55.86000000000001</ele>
   </trkpt>
   <trkpt lat="45.424580000000006" lon="-75.72318">
    <ele>55.1</ele>
   </trkpt>
   <trkpt lat="45.42455" lon="-75.72345">
    <ele>54.8</ele>
   </trkpt>
   <trkpt lat="45.424580000000006" lon="-75.72358000000001">
    <ele>54.8</ele>
   </trkpt>
   <trkpt lat="45.424710000000005" lon="-75.72382">
    <ele>53.99</ele>
   </trkpt>
   <trkpt lat="45.42475" lon="-75.72386">
    <ele>53.99</ele>
   </trkpt>
   <trkpt lat="45.42492" lon="-75.7239">
    <ele>53.78</ele>
   </trkpt>
   <trkpt lat="45.42504" lon="-75.72386">
    <ele>53.49</ele>
   </trkpt>
   <trkpt lat="45.425200000000004" lon="-75.72385000000001">
    <ele>53.36000000000001</ele>
   </trkpt>
   <trkpt lat="45.42533" lon="-75.72395">
    <ele>53.36000000000001</ele>
   </trkpt>
   <trkpt lat="45.42548" lon="-75.72395">
    <ele>53.42</ele>
   </trkpt>
   <trkpt lat="45.42559000000001" lon="-75.7241">
    <ele>53.57000000000001</ele>
   </trkpt>
   <trkpt lat="45.42568000000001" lon="-75.72429000000001">
    <ele>53.57000000000001</ele>
   </trkpt>
   <trkpt lat="45.425810000000006" lon="-75.7244">
    <ele>53.95</ele>
   </trkpt>
   <trkpt lat="45.42591" lon="-75.72452000000001">
    <ele>54.06</ele>
   </trkpt>
   <trkpt lat="45.426050000000004" lon="-75.72457">
    <ele>54.82000000000001</ele>
   </trkpt>
   <trkpt lat="45.42625" lon="-75.72467">
    <ele>54.970000000000006</ele>
   </trkpt>
   <trkpt lat="45.42634" lon="-75.72471">
    <ele>55.02</ele>
   </trkpt>
   <trkpt lat="45.42615000000001" lon="-75.72528000000001">
    <ele>54.480000000000004</ele>
   </trkpt>
   <trkpt lat="45.42618" lon="-75.72533">
    <ele>54.06</ele>
   </trkpt>
   <trkpt lat="45.42662000000001" lon="-75.72547">
    <ele>52.910000000000004</ele>
   </trkpt>
   <trkpt lat="45.42678" lon="-75.72556">
    <ele>52.6</ele>
   </trkpt>
   <trkpt lat="45.426930000000006" lon="-75.72568000000001">
    <ele>52.6</ele>
   </trkpt>
   <trkpt lat="45.427170000000004" lon="-75.72588">
    <ele>52.46000000000001</ele>
   </trkpt>
   <trkpt lat="45.427640000000004" lon="-75.72646">
    <ele>53.00000000000001</ele>
   </trkpt>
   <trkpt lat="45.42788" lon="-75.72668">
    <ele>52.63</ele>
   </trkpt>
   <trkpt lat="45.428520000000006" lon="-75.72722">
    <ele>53.38</ele>
   </trkpt>
   <trkpt lat="45.428830000000005" lon="-75.72744">
    <ele>53.38</ele>
   </trkpt>
   <trkpt lat="45.42884" lon="-75.72744">
    <ele>53.38</ele>
   </trkpt>
   <trkpt lat="45.42958" lon="-75.72745">
    <ele>52.32000000000001</ele>
   </trkpt>
   <trkpt lat="45.42992" lon="-75.72726">
    <ele>52.64000000000001</ele>
   </trkpt>
   <trkpt lat="45.43012" lon="-75.72718">
    <ele>52.230000000000004</ele>
   </trkpt>
   <trkpt lat="45.43032" lon="-75.72707000000001">
    <ele>50.72</ele>
   </trkpt>
   <trkpt lat="45.43043" lon="-75.72703">
    <ele>50.22</ele>
   </trkpt>
   <trkpt lat="45.4307" lon="-75.72716000000001">
    <ele>49.120000000000005</ele>
   </trkpt>
   <trkpt lat="45.4309" lon="-75.7273">
    <ele>48.85</ele>
   </trkpt>
   <trkpt lat="45.43104" lon="-75.72736">
    <ele>48.550000000000004</ele>
   </trkpt>
   <trkpt lat="45.431490000000004" lon="-75.72744">
    <ele>48.160000000000004</ele>
   </trkpt>
   <trkpt lat="45.43184" lon="-75.72758">
    <ele>47.38</ele>
   </trkpt>
   <trkpt lat="45.432030000000005" lon="-75.72762">
    <ele>47.190000000000005</ele>
   </trkpt>
   <trkpt lat="45.43247" lon="-75.72766">
    <ele>47.290000000000006</ele>
   </trkpt>
   <trkpt lat="45.43276" lon="-75.72775">
    <ele>47.35</ele>
   </trkpt>
   <trkpt lat="45.43305" lon="-75.72771">
    <ele>47.760000000000005</ele>
   </trkpt>
   <trkpt lat="45.43316" lon="-75.72766">
    <ele>48.120000000000005</ele>
   </trkpt>
   <trkpt lat="45.43358500051735" lon="-75.72741000173878">
    <ele>48.5</ele>
   </trkpt>
   <trkpt lat="45.43401" lon="-75.72716000000001">
    <ele>48.400000000000006</ele>
   </trkpt>
   <trkpt lat="45.43456500018062" lon="-75.72694000217574">
    <ele>48.95</ele>
   </trkpt>
   <trkpt lat="45.435120000000005" lon="-75.72672">
    <ele>51.36</ele>
   </trkpt>
   <trkpt lat="45.435300000000005" lon="-75.72654">
    <ele>51.75</ele>
   </trkpt>
   <trkpt lat="45.435430000000004" lon="-75.72622000000001">
    <ele>51.61</ele>
   </trkpt>
   <trkpt lat="45.435610000000004" lon="-75.72564000000001">
    <ele>50.800000000000004</ele>
   </trkpt>
   <trkpt lat="45.43572" lon="-75.72536000000001">
    <ele>50.54</ele>
   </trkpt>
   <trkpt lat="45.43627" lon="-75.72528000000001">
    <ele>50.330000000000005</ele>
   </trkpt>
   <trkpt lat="45.43672500032728" lon="-75.72526000014696">
    <ele>50.760000000000005</ele>
   </trkpt>
   <trkpt lat="45.437180000000005" lon="-75.72524">
    <ele>51.85000000000001</ele>
   </trkpt>
   <trkpt lat="45.43733" lon="-75.72507">
    <ele>52.04</ele>
   </trkpt>
   <trkpt lat="45.43739" lon="-75.72503">
    <ele>52.02</ele>
   </trkpt>
   <trkpt lat="45.43815" lon="-75.72483000000001">
    <ele>50.57</ele>
   </trkpt>
   <trkpt lat="45.438410000000005" lon="-75.72471">
    <ele>49.620000000000005</ele>
   </trkpt>
   <trkpt lat="45.43867" lon="-75.7248">
    <ele>48.11000000000001</ele>
   </trkpt>
   <trkpt lat="45.43903" lon="-75.72475">
    <ele>47.540000000000006</ele>
   </trkpt>
   <trkpt lat="45.43923" lon="-75.72471">
    <ele>47.52</ele>
   </trkpt>
   <trkpt lat="45.439420000000005" lon="-75.72457">
    <ele>47.550000000000004</ele>
   </trkpt>
   <trkpt lat="45.43958000000001" lon="-75.72452000000001">
    <ele>47.39</ele>
   </trkpt>
   <trkpt lat="45.439730000000004" lon="-75.72449">
    <ele>47.13</ele>
   </trkpt>
   <trkpt lat="45.439890000000005" lon="-75.72457">
    <ele>47.00000000000001</ele>
   </trkpt>
   <trkpt lat="45.43997" lon="-75.72466">
    <ele>46.59</ele>
   </trkpt>
   <trkpt lat="45.44021" lon="-75.72470000000001">
    <ele>45.83</ele>
   </trkpt>
   <trkpt lat="45.440725000055664" lon="-75.72450000187172">
    <ele>45.410000000000004</ele>
   </trkpt>
   <trkpt lat="45.44124" lon="-75.7243">
    <ele>45.77</ele>
   </trkpt>
   <trkpt lat="45.44142" lon="-75.72409">
    <ele>46.690000000000005</ele>
   </trkpt>
   <trkpt lat="45.44156" lon="-75.72378">
    <ele>47.580000000000005</ele>
   </trkpt>
   <trkpt lat="45.44162" lon="-75.72386">
    <ele>47.64</ele>
   </trkpt>
   <trkpt lat="45.441900000000004" lon="-75.72416000000001">
    <ele>47.63</ele>
   </trkpt>
   <trkpt lat="45.442040000000006" lon="-75.72416000000001">
    <ele>48.470000000000006</ele>
   </trkpt>
   <trkpt lat="45.442350000000005" lon="-75.72394000000001">
    <ele>49.800000000000004</ele>
   </trkpt>
   <trkpt lat="45.443090000000005" lon="-75.72373">
    <ele>49.400000000000006</ele>
   </trkpt>
   <trkpt lat="45.443380000000005" lon="-75.72368">
    <ele>49.46</ele>
   </trkpt>
   <trkpt lat="45.44361000000001" lon="-75.72359">
    <ele>49.79</ele>
   </trkpt>
   <trkpt lat="45.443940000000005" lon="-75.72327">
    <ele>49.89</ele>
   </trkpt>
   <trkpt lat="45.44446000000001" lon="-75.72265">
    <ele>48.67</ele>
   </trkpt>
   <trkpt lat="45.444660000000006" lon="-75.72248">
    <ele>47.61000000000001</ele>
   </trkpt>
   <trkpt lat="45.4448" lon="-75.72242">
    <ele>47.6</ele>
   </trkpt>
   <trkpt lat="45.44547" lon="-75.7222">
    <ele>49.480000000000004</ele>
   </trkpt>
   <trkpt lat="45.445820000000005" lon="-75.72203">
    <ele>48.42</ele>
   </trkpt>
   <trkpt lat="45.446000000000005" lon="-75.72185">
    <ele>47.99</ele>
   </trkpt>
   <trkpt lat="45.446110000000004" lon="-75.72179000000001">
    <ele>47.75</ele>
   </trkpt>
   <trkpt lat="45.44619" lon="-75.72175">
    <ele>47.470000000000006</ele>
   </trkpt>
   <trkpt lat="45.446310000000004" lon="-75.72175">
    <ele>46.77</ele>
   </trkpt>
   <trkpt lat="45.446600000000004" lon="-75.72188000000001">
    <ele>46.290000000000006</ele>
   </trkpt>
   <trkpt lat="45.44666" lon="-75.72185">
    <ele>46.25000000000001</ele>
   </trkpt>
   <trkpt lat="45.44671" lon="-75.7218">
    <ele>46.220000000000006</ele>
   </trkpt>
   <trkpt lat="45.44684" lon="-75.72146000000001">
    <ele>46.21</ele>
   </trkpt>
   <trkpt lat="45.44693" lon="-75.72148">
    <ele>46.1</ele>
   </trkpt>
   <trkpt lat="45.447050000000004" lon="-75.72143000000001">
    <ele>45.99</ele>
   </trkpt>
   <trkpt lat="45.44727" lon="-75.72184">
    <ele>46.19</ele>
   </trkpt>
   <trkpt lat="45.447320000000005" lon="-75.72198">
    <ele>46.49</ele>
   </trkpt>
   <trkpt lat="45.447300000000006" lon="-75.7226">
    <ele>47.980000000000004</ele>
   </trkpt>
   <trkpt lat="45.447320000000005" lon="-75.72268000000001">
    <ele>47.980000000000004</ele>
   </trkpt>
   <trkpt lat="45.44747" lon="-75.72278">
    <ele>48.900000000000006</ele>
   </trkpt>
   <trkpt lat="45.447540000000004" lon="-75.72287">
    <ele>49.160000000000004</ele>
   </trkpt>
   <trkpt lat="45.44782000000001" lon="-75.72327">
    <ele>48.86</ele>
   </trkpt>
   <trkpt lat="45.44805" lon="-75.72349000000001">
    <ele>48.720000000000006</ele>
   </trkpt>
   <trkpt lat="45.44816" lon="-75.72366000000001">
    <ele>48.760000000000005</ele>
   </trkpt>
   <trkpt lat="45.448260000000005" lon="-75.72408">
    <ele>49.1</ele>
   </trkpt>
   <trkpt lat="45.448330000000006" lon="-75.72427">
    <ele>48.45</ele>
   </trkpt>
   <trkpt lat="45.44877" lon="-75.7248">
    <ele>44.99</ele>
   </trkpt>
   <trkpt lat="45.44906" lon="-75.72533">
    <ele>44.83</ele>
   </trkpt>
   <trkpt lat="45.449360000000006" lon="-75.72596">
    <ele>44.86000000000001</ele>
   </trkpt>
   <trkpt lat="45.44948" lon="-75.72627">
    <ele>44.870000000000005</ele>
   </trkpt>
   <trkpt lat="45.44973" lon="-75.72668">
    <ele>44.9</ele>
   </trkpt>
   <trkpt lat="45.45011" lon="-75.72722">
    <ele>46.11000000000001</ele>
   </trkpt>
   <trkpt lat="45.45018" lon="-75.72727">
    <ele>46.330000000000005</ele>
   </trkpt>
   <trkpt lat="45.45036" lon="-75.72731">
    <ele>47.36000000000001</ele>
   </trkpt>
   <trkpt lat="45.45112" lon="-75.72758">
    <ele>47.550000000000004</ele>
   </trkpt>
   <trkpt lat="45.45132" lon="-75.72758">
    <ele>46.160000000000004</ele>
   </trkpt>
   <trkpt lat="45.451330000000006" lon="-75.72758">
    <ele>46.160000000000004</ele>
   </trkpt>
   <trkpt lat="45.451460000000004" lon="-75.72745">
    <ele>45.31</ele>
   </trkpt>
   <trkpt lat="45.45194000051946" lon="-75.72710500293611">
    <ele>44.94</ele>
   </trkpt>
   <trkpt lat="45.452420000000004" lon="-75.72676000000001">
    <ele>44.99</ele>
   </trkpt>
   <trkpt lat="45.45255" lon="-75.7266">
    <ele>44.95</ele>
   </trkpt>
   <trkpt lat="45.452740000000006" lon="-75.72624">
    <ele>44.85</ele>
   </trkpt>
   <trkpt lat="45.452850000000005" lon="-75.72595000000001">
    <ele>44.84</ele>
   </trkpt>
   <trkpt lat="45.453120000000006" lon="-75.72564000000001">
    <ele>44.88</ele>
   </trkpt>
   <trkpt lat="45.45329" lon="-75.72534">
    <ele>44.870000000000005</ele>
   </trkpt>
   <trkpt lat="45.453450000000004" lon="-75.72489">
    <ele>44.86000000000001</ele>
   </trkpt>
   <trkpt lat="45.4536" lon="-75.72437000000001">
    <ele>44.96000000000001</ele>
   </trkpt>
   <trkpt lat="45.45373" lon="-75.72409">
    <ele>44.96000000000001</ele>
   </trkpt>
   <trkpt lat="45.45385" lon="-75.72374">
    <ele>45.17</ele>
   </trkpt>
   <trkpt lat="45.45395000320843" lon="-75.72288500135248">
    <ele>45.45</ele>
   </trkpt>
   <trkpt lat="45.45405" lon="-75.72203">
    <ele>45.8</ele>
   </trkpt>
   <trkpt lat="45.454100000000004" lon="-75.72184">
    <ele>46.09</ele>
   </trkpt>
   <trkpt lat="45.45422000000001" lon="-75.72162">
    <ele>46.510000000000005</ele>
   </trkpt>
   <trkpt lat="45.45438" lon="-75.72141">
    <ele>47.93000000000001</ele>
   </trkpt>
   <trkpt lat="45.454390000000004" lon="-75.72141">
    <ele>47.95</ele>
   </trkpt>
   <trkpt lat="45.45440000000001" lon="-75.72124000000001">
    <ele>48.59</ele>
   </trkpt>
   <trkpt lat="45.45421" lon="-75.72071000000001">
    <ele>47.74</ele>
   </trkpt>
   <trkpt lat="45.45389" lon="-75.7205">
    <ele>45.540000000000006</ele>
   </trkpt>
   <trkpt lat="45.45353" lon="-75.72014">
    <ele>44.76</ele>
   </trkpt>
   <trkpt lat="45.45324" lon="-75.71988">
    <ele>44.800000000000004</ele>
   </trkpt>
   <trkpt lat="45.452980000000004" lon="-75.71974">
    <ele>44.79</ele>
   </trkpt>
   <trkpt lat="45.452850000000005" lon="-75.71969">
    <ele>44.79</ele>
   </trkpt>
   <trkpt lat="45.452650000000006" lon="-75.71969">
    <ele>44.79</ele>
   </trkpt>
   <trkpt lat="45.452450000000006" lon="-75.71965">
    <ele>45.57000000000001</ele>
   </trkpt>
   <trkpt lat="45.452290000000005" lon="-75.71956">
    <ele>45.57000000000001</ele>
   </trkpt>
   <trkpt lat="45.45217" lon="-75.71947">
    <ele>45.83</ele>
   </trkpt>
   <trkpt lat="45.45206" lon="-75.71933">
    <ele>45.93000000000001</ele>
   </trkpt>
   <trkpt lat="45.451980000000006" lon="-75.71928000000001">
    <ele>45.93000000000001</ele>
   </trkpt>
   <trkpt lat="45.45177" lon="-75.71925">
    <ele>46.11000000000001</ele>
   </trkpt>
   <trkpt lat="45.45138" lon="-75.71928000000001">
    <ele>45.970000000000006</ele>
   </trkpt>
   <trkpt lat="45.45089" lon="-75.71924">
    <ele>45.69</ele>
   </trkpt>
   <trkpt lat="45.450630000000004" lon="-75.7192">
    <ele>45.4</ele>
   </trkpt>
   <trkpt lat="45.45044" lon="-75.71907">
    <ele>44.74</ele>
   </trkpt>
   <trkpt lat="45.45022" lon="-75.71907">
    <ele>44.65</ele>
   </trkpt>
   <trkpt lat="45.449940000000005" lon="-75.71911">
    <ele>44.99</ele>
   </trkpt>
   <trkpt lat="45.44989" lon="-75.71910000000001">
    <ele>45.02</ele>
   </trkpt>
   <trkpt lat="45.44964" lon="-75.71866">
    <ele>45.31</ele>
   </trkpt>
   <trkpt lat="45.44948" lon="-75.71852000000001">
    <ele>45.28</ele>
   </trkpt>
   <trkpt lat="45.449250000000006" lon="-75.71839">
    <ele>45.37</ele>
   </trkpt>
   <trkpt lat="45.449180000000005" lon="-75.71837000000001">
    <ele>45.35</ele>
   </trkpt>
   <trkpt lat="45.44908" lon="-75.71825000000001">
    <ele>45.19</ele>
   </trkpt>
   <trkpt lat="45.44895" lon="-75.71795">
    <ele>44.550000000000004</ele>
   </trkpt>
   <trkpt lat="45.448890000000006" lon="-75.71772">
    <ele>44.370000000000005</ele>
   </trkpt>
   <trkpt lat="45.448910000000005" lon="-75.71745">
    <ele>44.24</ele>
   </trkpt>
   <trkpt lat="45.449000000000005" lon="-75.71722000000001">
    <ele>44.1</ele>
   </trkpt>
   <trkpt lat="45.449405000543884" lon="-75.71684500275711">
    <ele>44.42</ele>
   </trkpt>
   <trkpt lat="45.44981000000001" lon="-75.71647">
    <ele>45.01</ele>
   </trkpt>
   <trkpt lat="45.45028000000001" lon="-75.71616">
    <ele>45.32000000000001</ele>
   </trkpt>
   <trkpt lat="45.450320000000005" lon="-75.71610000000001">
    <ele>45.58</ele>
   </trkpt>
   <trkpt lat="45.450530003789986" lon="-75.71516500358848">
    <ele>45.81</ele>
   </trkpt>
   <trkpt lat="45.45074" lon="-75.71423">
    <ele>45.96</ele>
   </trkpt>
   <trkpt lat="45.450880000000005" lon="-75.71369">
    <ele>46.00000000000001</ele>
   </trkpt>
   <trkpt lat="45.45107" lon="-75.71311">
    <ele>46.00000000000001</ele>
   </trkpt>
   <trkpt lat="45.45132" lon="-75.71248">
    <ele>45.87</ele>
   </trkpt>
   <trkpt lat="45.451420000000006" lon="-75.71208">
    <ele>45.93000000000001</ele>
   </trkpt>
   <trkpt lat="45.45158000000001" lon="-75.71119">
    <ele>45.81</ele>
   </trkpt>
   <trkpt lat="45.45158000000001" lon="-75.71104000000001">
    <ele>45.87</ele>
   </trkpt>
   <trkpt lat="45.451550000000005" lon="-75.71083">
    <ele>45.87</ele>
   </trkpt>
   <trkpt lat="45.451460000000004" lon="-75.71042">
    <ele>45.970000000000006</ele>
   </trkpt>
   <trkpt lat="45.451440000000005" lon="-75.70948">
    <ele>45.970000000000006</ele>
   </trkpt>
   <trkpt lat="45.45140000000001" lon="-75.70907000000001">
    <ele>45.970000000000006</ele>
   </trkpt>
   <trkpt lat="45.45125" lon="-75.7085">
    <ele>45.660000000000004</ele>
   </trkpt>
   <trkpt lat="45.451040000000006" lon="-75.70833">
    <ele>45.06</ele>
   </trkpt>
   <trkpt lat="45.450990000000004" lon="-75.70823">
    <ele>45.01</ele>
   </trkpt>
   <trkpt lat="45.45093000000001" lon="-75.70801">
    <ele>45.07000000000001</ele>
   </trkpt>
   <trkpt lat="45.45091" lon="-75.70783">
    <ele>45.19</ele>
   </trkpt>
   <trkpt lat="45.45069" lon="-75.70734">
    <ele>45.33</ele>
   </trkpt>
   <trkpt lat="45.45051" lon="-75.70712">
    <ele>45.63</ele>
   </trkpt>
   <trkpt lat="45.450340000000004" lon="-75.70703">
    <ele>45.75000000000001</ele>
   </trkpt>
   <trkpt lat="45.450340000000004" lon="-75.70702">
    <ele>45.75000000000001</ele>
   </trkpt>
   <trkpt lat="45.450160000000004" lon="-75.70698">
    <ele>46.410000000000004</ele>
   </trkpt>
   <trkpt lat="45.450030000000005" lon="-75.70688000000001">
    <ele>46.67</ele>
   </trkpt>
   <trkpt lat="45.449940000000005" lon="-75.70693">
    <ele>46.77</ele>
   </trkpt>
   <trkpt lat="45.44989" lon="-75.70708">
    <ele>46.89</ele>
   </trkpt>
   <trkpt lat="45.449725002672324" lon="-75.70786000219671">
    <ele>47.09</ele>
   </trkpt>
   <trkpt lat="45.449560000000005" lon="-75.70864">
    <ele>46.6</ele>
   </trkpt>
   <trkpt lat="45.4495" lon="-75.70962">
    <ele>46.57000000000001</ele>
   </trkpt>
   <trkpt lat="45.44946" lon="-75.7099">
    <ele>46.830000000000005</ele>
   </trkpt>
   <trkpt lat="45.44939" lon="-75.7102">
    <ele>46.81</ele>
   </trkpt>
   <trkpt lat="45.449290000000005" lon="-75.71045000000001">
    <ele>46.53</ele>
   </trkpt>
   <trkpt lat="45.449020000000004" lon="-75.71091000000001">
    <ele>45.82000000000001</ele>
   </trkpt>
   <trkpt lat="45.448640000000005" lon="-75.71132">
    <ele>45.57000000000001</ele>
   </trkpt>
   <trkpt lat="45.448350000000005" lon="-75.71159">
    <ele>45.95</ele>
   </trkpt>
   <trkpt lat="45.447990000000004" lon="-75.71185000000001">
    <ele>46.760000000000005</ele>
   </trkpt>
   <trkpt lat="45.44771" lon="-75.71198000000001">
    <ele>47.440000000000005</ele>
   </trkpt>
   <trkpt lat="45.447480000000006" lon="-75.71201">
    <ele>47.720000000000006</ele>
   </trkpt>
   <trkpt lat="45.447190000000006" lon="-75.71213">
    <ele>47.85</ele>
   </trkpt>
   <trkpt lat="45.44677" lon="-75.71222">
    <ele>47.900000000000006</ele>
   </trkpt>
   <trkpt lat="45.44643000000001" lon="-75.71213">
    <ele>47.99</ele>
   </trkpt>
   <trkpt lat="45.446290000000005" lon="-75.71213">
    <ele>47.99</ele>
   </trkpt>
   <trkpt lat="45.446020000000004" lon="-75.71238000000001">
    <ele>48.07</ele>
   </trkpt>
   <trkpt lat="45.44527750031632" lon="-75.71254250642288">
    <ele>46.78</ele>
   </trkpt>
   <trkpt lat="45.44453500040222" lon="-75.71270500856797">
    <ele>46.61000000000001</ele>
   </trkpt>
   <trkpt lat="45.44379250025769" lon="-75.71286750643547">
    <ele>46.25000000000001</ele>
   </trkpt>
   <trkpt lat="45.44305000000001" lon="-75.71303">
    <ele>45.25000000000001</ele>
   </trkpt>
   <trkpt lat="45.4429" lon="-75.71302">
    <ele>45.17</ele>
   </trkpt>
   <trkpt lat="45.442730000000005" lon="-75.71293">
    <ele>45.02</ele>
   </trkpt>
   <trkpt lat="45.442260000000005" lon="-75.71262">
    <ele>44.72</ele>
   </trkpt>
   <trkpt lat="45.44183" lon="-75.71217">
    <ele>45.09</ele>
   </trkpt>
   <trkpt lat="45.44151" lon="-75.71180000000001">
    <ele>46.49</ele>
   </trkpt>
   <trkpt lat="45.44124" lon="-75.7115">
    <ele>47.34</ele>
   </trkpt>
   <trkpt lat="45.441210000000005" lon="-75.71143000000001">
    <ele>47.34</ele>
   </trkpt>
   <trkpt lat="45.44111" lon="-75.71132">
    <ele>48.080000000000005</ele>
   </trkpt>
   <trkpt lat="45.440990000000006" lon="-75.71106">
    <ele>49.18</ele>
   </trkpt>
   <trkpt lat="45.44093" lon="-75.71087">
    <ele>49.720000000000006</ele>
   </trkpt>
   <trkpt lat="45.44070000000001" lon="-75.71056">
    <ele>51.77</ele>
   </trkpt>
   <trkpt lat="45.440630000000006" lon="-75.71016">
    <ele>52.25000000000001</ele>
   </trkpt>
   <trkpt lat="45.44054500405949" lon="-75.70919499850908">
    <ele>53.160000000000004</ele>
   </trkpt>
   <trkpt lat="45.44046" lon="-75.70823">
    <ele>54.39000000000001</ele>
   </trkpt>
   <trkpt lat="45.44044" lon="-75.70815">
    <ele>54.64</ele>
   </trkpt>
   <trkpt lat="45.440380000000005" lon="-75.70808000000001">
    <ele>54.64</ele>
   </trkpt>
   <trkpt lat="45.439620000000005" lon="-75.70821000000001">
    <ele>54.8</ele>
   </trkpt>
   <trkpt lat="45.438990000142695" lon="-75.70833666949468">
    <ele>55.970000000000006</ele>
   </trkpt>
   <trkpt lat="45.438360000145366" lon="-75.70846333616076">
    <ele>57.050000000000004</ele>
   </trkpt>
   <trkpt lat="45.43773" lon="-75.70859">
    <ele>56.730000000000004</ele>
   </trkpt>
   <trkpt lat="45.437630000000006" lon="-75.70854">
    <ele>56.730000000000004</ele>
   </trkpt>
   <trkpt lat="45.43719" lon="-75.7086">
    <ele>56.28</ele>
   </trkpt>
   <trkpt lat="45.43657000017313" lon="-75.70872000129712">
    <ele>54.470000000000006</ele>
   </trkpt>
   <trkpt lat="45.435950000000005" lon="-75.70884000000001">
    <ele>53.550000000000004</ele>
   </trkpt>
   <trkpt lat="45.435570000000006" lon="-75.70894000000001">
    <ele>52.99</ele>
   </trkpt>
   <trkpt lat="45.43508499984182" lon="-75.70904000090106">
    <ele>52.27</ele>
   </trkpt>
   <trkpt lat="45.4346" lon="-75.70914">
    <ele>51.46000000000001</ele>
   </trkpt>
   <trkpt lat="45.43383333346845" lon="-75.70928333723595">
    <ele>49.95</ele>
   </trkpt>
   <trkpt lat="45.43306666675764" lon="-75.70942667057747">
    <ele>50.04</ele>
   </trkpt>
   <trkpt lat="45.432300000000005" lon="-75.70957">
    <ele>52.46000000000001</ele>
   </trkpt>
   <trkpt lat="45.43226000000001" lon="-75.70953">
    <ele>52.46000000000001</ele>
   </trkpt>
   <trkpt lat="45.43204" lon="-75.70958">
    <ele>53.050000000000004</ele>
   </trkpt>
   <trkpt lat="45.431940000000004" lon="-75.70957">
    <ele>53.17</ele>
   </trkpt>
   <trkpt lat="45.43175" lon="-75.70942000000001">
    <ele>53.38</ele>
   </trkpt>
   <trkpt lat="45.4318" lon="-75.70931">
    <ele>53.38</ele>
   </trkpt>
   <trkpt lat="45.431810000000006" lon="-75.70917">
    <ele>53.18000000000001</ele>
   </trkpt>
   <trkpt lat="45.43177" lon="-75.70891">
    <ele>53.15</ele>
   </trkpt>
   <trkpt lat="45.43169" lon="-75.70866000000001">
    <ele>54.17</ele>
   </trkpt>
   <trkpt lat="45.43127336061665" lon="-75.70754162538853">
    <ele>58.480000000000004</ele>
   </trkpt>
   <trkpt lat="45.430856710319745" lon="-75.70642326728891">
    <ele>59.89000000000001</ele>
   </trkpt>
   <trkpt lat="45.4304400491096" lon="-75.70530492570107">
    <ele>59.760000000000005</ele>
   </trkpt>
   <trkpt lat="45.43002337698653" lon="-75.704186600625">
    <ele>59.480000000000004</ele>
   </trkpt>
   <trkpt lat="45.429606693950866" lon="-75.70306829206059">
    <ele>59.59</ele>
   </trkpt>
   <trkpt lat="45.429190000000006" lon="-75.70195000000001">
    <ele>60.06</ele>
   </trkpt>
   <trkpt lat="45.42909" lon="-75.70157">
    <ele>60.64000000000001</ele>
   </trkpt>
   <trkpt lat="45.42904" lon="-75.70121">
    <ele>61.21000000000001</ele>
   </trkpt>
   <trkpt lat="45.429010000000005" lon="-75.70055">
    <ele>62.57</ele>
   </trkpt>
   <trkpt lat="45.42897000000001" lon="-75.70031">
    <ele>63.06</ele>
   </trkpt>
   <trkpt lat="45.42871" lon="-75.69933">
    <ele>65.17</ele>
   </trkpt>
   <trkpt lat="45.42868000000001" lon="-75.69889">
    <ele>66.11</ele>
   </trkpt>
   <trkpt lat="45.428740000000005" lon="-75.69889">
    <ele>66.11</ele>
   </trkpt>
   <trkpt lat="45.428740000000005" lon="-75.69873000000001">
    <ele>66.17</ele>
   </trkpt>
   <trkpt lat="45.42871" lon="-75.69812">
    <ele>66.84</ele>
   </trkpt>
   <trkpt lat="45.42855" lon="-75.69697000000001">
    <ele>67.68</ele>
   </trkpt>
   <trkpt lat="45.42786333633588" lon="-75.69638331905932">
    <ele>69.44</ele>
   </trkpt>
   <trkpt lat="45.42717666966851" lon="-75.6957966523923">
    <ele>72.10000000000001</ele>
   </trkpt>
   <trkpt lat="45.42649" lon="-75.69521">
    <ele>72.88</ele>
   </trkpt>
   <trkpt lat="45.42597000000001" lon="-75.69469000000001">
    <ele>72.21000000000001</ele>
   </trkpt>
   <trkpt lat="45.42530000000001" lon="-75.69411000000001">
    <ele>71.91</ele>
   </trkpt>
   <trkpt lat="45.425180000000005" lon="-75.69391">
    <ele>71.16</ele>
   </trkpt>
   <trkpt lat="45.42506" lon="-75.69333">
    <ele>68.34</ele>
   </trkpt>
   <trkpt lat="45.424980000000005" lon="-75.69318000000001">
    <ele>67.79</ele>
   </trkpt>
   <trkpt lat="45.424800000000005" lon="-75.69291000000001">
    <ele>66.41000000000001</ele>
   </trkpt>
   <trkpt lat="45.424200000000006" lon="-75.69242000000001">
    <ele>66.56</ele>
   </trkpt>
   <trkpt lat="45.4241" lon="-75.6923">
    <ele>66.42</ele>
   </trkpt>
   <trkpt lat="45.423930000000006" lon="-75.69202">
    <ele>65.68</ele>
   </trkpt>
   <trkpt lat="45.42374" lon="-75.69159">
    <ele>65.34</ele>
   </trkpt>
   <trkpt lat="45.42342000000001" lon="-75.69061">
    <ele>64.96000000000001</ele>
   </trkpt>
   <trkpt lat="45.423320000000004" lon="-75.69033">
    <ele>65.09</ele>
   </trkpt>
   <trkpt lat="45.42289" lon="-75.68938">
    <ele>65.48</ele>
   </trkpt>
   <trkpt lat="45.422520000000006" lon="-75.68847000000001">
    <ele>66.0</ele>
   </trkpt>
   <trkpt lat="45.42248" lon="-75.6885">
    <ele>66.0</ele>
   </trkpt>
   <trkpt lat="45.422320000000006" lon="-75.68817">
    <ele>64.98</ele>
   </trkpt>
   <trkpt lat="45.422290000000004" lon="-75.68814">
    <ele>64.98</ele>
   </trkpt>
   <trkpt lat="45.42224" lon="-75.68813">
    <ele>64.98</ele>
   </trkpt>
   <trkpt lat="45.421864013315606" lon="-75.68725597668221">
    <ele>65.09</ele>
   </trkpt>
   <trkpt lat="45.42148801996561" lon="-75.68638196500565">
    <ele>65.10000000000001</ele>
   </trkpt>
   <trkpt lat="45.42111201995015" lon="-75.68550796497026">
    <ele>65.10000000000001</ele>
   </trkpt>
   <trkpt lat="45.42073601326943" lon="-75.6846339765759">
    <ele>65.08</ele>
   </trkpt>
   <trkpt lat="45.42036" lon="-75.68376">
    <ele>65.89</ele>
   </trkpt>
   <trkpt lat="45.42042000000001" lon="-75.68328000000001">
    <ele>67.02000000000001</ele>
   </trkpt>
   <trkpt lat="45.42065000140571" lon="-75.68384499773029">
    <ele>69.26</ele>
   </trkpt>
   <trkpt lat="45.420880000000004" lon="-75.68441">
    <ele>70.69</ele>
   </trkpt>
   <trkpt lat="45.42085" lon="-75.68446">
    <ele>70.92000000000002</ele>
   </trkpt>
   <trkpt lat="45.42071000000001" lon="-75.68429">
    <ele>71.08</ele>
   </trkpt>
   <trkpt lat="45.42031" lon="-75.68490000000001">
    <ele>70.39</ele>
   </trkpt>
   <trkpt lat="45.42024000000001" lon="-75.68472000000001">
    <ele>69.84</ele>
   </trkpt>
   <trkpt lat="45.420190000000005" lon="-75.68441">
    <ele>68.95</ele>
   </trkpt>
   <trkpt lat="45.419990000000006" lon="-75.68390000000001">
    <ele>68.08</ele>
   </trkpt>
   <trkpt lat="45.41965000597598" lon="-75.68307332340915">
    <ele>67.39</ele>
   </trkpt>
   <trkpt lat="45.41931000598894" lon="-75.68224665677411">
    <ele>66.59</ele>
   </trkpt>
   <trkpt lat="45.41897" lon="-75.68142">
    <ele>65.12</ele>
   </trkpt>
   <trkpt lat="45.41886" lon="-75.68119">
    <ele>64.98</ele>
   </trkpt>
   <trkpt lat="45.41875" lon="-75.68105000000001">
    <ele>64.96000000000001</ele>
   </trkpt>
   <trkpt lat="45.41859" lon="-75.68095000000001">
    <ele>64.96000000000001</ele>
   </trkpt>
   <trkpt lat="45.418330000000005" lon="-75.68085">
    <ele>64.93</ele>
   </trkpt>
   <trkpt lat="45.418330000000005" lon="-75.68084">
    <ele>64.93</ele>
   </trkpt>
   <trkpt lat="45.41823" lon="-75.68084">
    <ele>64.93</ele>
   </trkpt>
   <trkpt lat="45.41749833784344" lon="-75.68129502948152">
    <ele>64.97</ele>
   </trkpt>
   <trkpt lat="45.41676667388024" lon="-75.68175004717119">
    <ele>65.05000000000001</ele>
   </trkpt>
   <trkpt lat="45.416035008110526" lon="-75.6822050530696">
    <ele>65.31</ele>
   </trkpt>
   <trkpt lat="45.415303340534344" lon="-75.68266004717732">
    <ele>65.5</ele>
   </trkpt>
   <trkpt lat="45.414571671151826" lon="-75.68311502949491">
    <ele>65.93</ele>
   </trkpt>
   <trkpt lat="45.41384" lon="-75.68357">
    <ele>66.10000000000001</ele>
   </trkpt>
   <trkpt lat="45.41355" lon="-75.6837">
    <ele>65.84</ele>
   </trkpt>
   <trkpt lat="45.41308" lon="-75.68383">
    <ele>65.53</ele>
   </trkpt>
   <trkpt lat="45.412960000000005" lon="-75.68385">
    <ele>65.11</ele>
   </trkpt>
   <trkpt lat="45.412620000000004" lon="-75.68378000000001">
    <ele>64.2</ele>
   </trkpt>
   <trkpt lat="45.41198000000001" lon="-75.68375">
    <ele>63.94000000000001</ele>
   </trkpt>
   <trkpt lat="45.411750000000005" lon="-75.68378000000001">
    <ele>63.87000000000001</ele>
   </trkpt>
   <trkpt lat="45.41158" lon="-75.68373000000001">
    <ele>63.87000000000001</ele>
   </trkpt>
   <trkpt lat="45.411500000000004" lon="-75.68373000000001">
    <ele>63.87000000000001</ele>
   </trkpt>
   <trkpt lat="45.41132" lon="-75.68360000000001">
    <ele>63.76000000000001</ele>
   </trkpt>
   <trkpt lat="45.411150000000006" lon="-75.68352">
    <ele>63.76000000000001</ele>
   </trkpt>
   <trkpt lat="45.41095000000001" lon="-75.68354000000001">
    <ele>63.88</ele>
   </trkpt>
   <trkpt lat="45.41089" lon="-75.68352">
    <ele>63.87000000000001</ele>
   </trkpt>
   <trkpt lat="45.41066000000001" lon="-75.68333000000001">
    <ele>63.81</ele>
   </trkpt>
   <trkpt lat="45.41015" lon="-75.68294">
    <ele>63.910000000000004</ele>
   </trkpt>
   <trkpt lat="45.409850000000006" lon="-75.68262">
    <ele>63.9</ele>
   </trkpt>
   <trkpt lat="45.409620000000004" lon="-75.6824">
    <ele>64.02000000000001</ele>
   </trkpt>
   <trkpt lat="45.40935" lon="-75.68222">
    <ele>64.34</ele>
   </trkpt>
   <trkpt lat="45.40912" lon="-75.68214">
    <ele>64.45</ele>
   </trkpt>
   <trkpt lat="45.40880000000001" lon="-75.68207000000001">
    <ele>64.63000000000001</ele>
   </trkpt>
   <trkpt lat="45.40834999989061" lon="-75.68200999950534">
    <ele>65.01</ele>
   </trkpt>
   <trkpt lat="45.407900000000005" lon="-75.68195">
    <ele>64.48</ele>
   </trkpt>
   <trkpt lat="45.40773" lon="-75.68187">
    <ele>64.31</ele>
   </trkpt>
   <trkpt lat="45.407590000000006" lon="-75.68186">
    <ele>64.0</ele>
   </trkpt>
   <trkpt lat="45.40690000000852" lon="-75.68183499969483">
    <ele>63.80000000000001</ele>
   </trkpt>
   <trkpt lat="45.40621" lon="-75.68181000000001">
    <ele>63.76000000000001</ele>
   </trkpt>
   <trkpt lat="45.405820000000006" lon="-75.68168">
    <ele>63.77</ele>
   </trkpt>
   <trkpt lat="45.405620000000006" lon="-75.68164">
    <ele>63.79</ele>
   </trkpt>
   <trkpt lat="45.40513000000001" lon="-75.68164">
    <ele>63.83000000000001</ele>
   </trkpt>
   <trkpt lat="45.404650000000004" lon="-75.68177">
    <ele>64.14</ele>
   </trkpt>
   <trkpt lat="45.4044" lon="-75.68195">
    <ele>64.56</ele>
   </trkpt>
   <trkpt lat="45.40417" lon="-75.682">
    <ele>64.73</ele>
   </trkpt>
   <trkpt lat="45.404030000000006" lon="-75.68196">
    <ele>64.93</ele>
   </trkpt>
   <trkpt lat="45.40386" lon="-75.68185000000001">
    <ele>64.53999999999999</ele>
   </trkpt>
   <trkpt lat="45.403510000000004" lon="-75.68168">
    <ele>64.17</ele>
   </trkpt>
   <trkpt lat="45.40334000000001" lon="-75.68155">
    <ele>63.87000000000001</ele>
   </trkpt>
   <trkpt lat="45.4029" lon="-75.68103">
    <ele>63.55000000000001</ele>
   </trkpt>
   <trkpt lat="45.40237333486746" lon="-75.68060665875016">
    <ele>63.47</ele>
   </trkpt>
   <trkpt lat="45.40184666817114" lon="-75.6801833253931">
    <ele>63.52</ele>
   </trkpt>
   <trkpt lat="45.401320000000005" lon="-75.67976">
    <ele>63.65000000000001</ele>
   </trkpt>
   <trkpt lat="45.40110000000001" lon="-75.67962">
    <ele>63.660000000000004</ele>
   </trkpt>
   <trkpt lat="45.40088" lon="-75.67954">
    <ele>63.62000000000001</ele>
   </trkpt>
   <trkpt lat="45.4007" lon="-75.67954">
    <ele>63.62000000000001</ele>
   </trkpt>
   <trkpt lat="45.40025000000001" lon="-75.67967">
    <ele>63.62000000000001</ele>
   </trkpt>
   <trkpt lat="45.399800000000006" lon="-75.67989">
    <ele>63.58000000000001</ele>
   </trkpt>
   <trkpt lat="45.39914" lon="-75.68034">
    <ele>63.58000000000001</ele>
   </trkpt>
   <trkpt lat="45.398830000000004" lon="-75.68049">
    <ele>63.56</ele>
   </trkpt>
   <trkpt lat="45.39825500009655" lon="-75.68070500222719">
    <ele>63.74</ele>
   </trkpt>
   <trkpt lat="45.39768" lon="-75.68092">
    <ele>63.81</ele>
   </trkpt>
   <trkpt lat="45.39752000000001" lon="-75.68106">
    <ele>63.79</ele>
   </trkpt>
   <trkpt lat="45.39744" lon="-75.68114">
    <ele>63.79</ele>
   </trkpt>
   <trkpt lat="45.397330000000004" lon="-75.68132">
    <ele>63.79</ele>
   </trkpt>
   <trkpt lat="45.3970850016348" lon="-75.68192500252961">
    <ele>63.92</ele>
   </trkpt>
   <trkpt lat="45.396840000000005" lon="-75.68253">
    <ele>63.95</ele>
   </trkpt>
   <trkpt lat="45.396710000000006" lon="-75.68306000000001">
    <ele>63.86</ele>
   </trkpt>
   <trkpt lat="45.39664000190168" lon="-75.6837200008064">
    <ele>63.88</ele>
   </trkpt>
   <trkpt lat="45.396570000000004" lon="-75.68438">
    <ele>64.10000000000001</ele>
   </trkpt>
   <trkpt lat="45.396570000000004" lon="-75.68455">
    <ele>64.13000000000001</ele>
   </trkpt>
   <trkpt lat="45.3965" lon="-75.68507000000001">
    <ele>64.13000000000001</ele>
   </trkpt>
   <trkpt lat="45.396460000000005" lon="-75.68594">
    <ele>63.71</ele>
   </trkpt>
   <trkpt lat="45.39629" lon="-75.68697">
    <ele>63.74</ele>
   </trkpt>
   <trkpt lat="45.39603" lon="-75.68813">
    <ele>63.65000000000001</ele>
   </trkpt>
   <trkpt lat="45.395920000000004" lon="-75.6884">
    <ele>63.78</ele>
   </trkpt>
   <trkpt lat="45.395480000000006" lon="-75.68912">
    <ele>63.86</ele>
   </trkpt>
   <trkpt lat="45.39499000000001" lon="-75.68979">
    <ele>63.83000000000001</ele>
   </trkpt>
   <trkpt lat="45.39466" lon="-75.69028">
    <ele>63.78</ele>
   </trkpt>
   <trkpt lat="45.39425000000001" lon="-75.69122">
    <ele>63.78</ele>
   </trkpt>
   <trkpt lat="45.394180000000006" lon="-75.69153">
    <ele>63.78</ele>
   </trkpt>
   <trkpt lat="45.3941" lon="-75.69211">
    <ele>63.80000000000001</ele>
   </trkpt>
   <trkpt lat="45.394090000000006" lon="-75.69314">
    <ele>63.78</ele>
   </trkpt>
   <trkpt lat="45.39412500481446" lon="-75.69418999948039">
    <ele>63.72</ele>
   </trkpt>
   <trkpt lat="45.39416000000001" lon="-75.69524000000001">
    <ele>64.28</ele>
   </trkpt>
   <trkpt lat="45.394200000000005" lon="-75.69556">
    <ele>64.75</ele>
   </trkpt>
   <trkpt lat="45.39424" lon="-75.69573000000001">
    <ele>65.03</ele>
   </trkpt>
   <trkpt lat="45.39425000000001" lon="-75.69583">
    <ele>65.03</ele>
   </trkpt>
   <trkpt lat="45.3941" lon="-75.69677">
    <ele>65.68</ele>
   </trkpt>
   <trkpt lat="45.39408" lon="-75.69705">
    <ele>65.61</ele>
   </trkpt>
   <trkpt lat="45.394070000000006" lon="-75.69744">
    <ele>65.45</ele>
   </trkpt>
   <trkpt lat="45.394090000000006" lon="-75.69763">
    <ele>65.45</ele>
   </trkpt>
   <trkpt lat="45.39416000000001" lon="-75.69798">
    <ele>65.22</ele>
   </trkpt>
   <trkpt lat="45.39441" lon="-75.69855000000001">
    <ele>65.12</ele>
   </trkpt>
   <trkpt lat="45.39479" lon="-75.69905">
    <ele>64.36</ele>
   </trkpt>
   <trkpt lat="45.39491" lon="-75.69936000000001">
    <ele>64.08000000000001</ele>
   </trkpt>
   <trkpt lat="45.395360000000004" lon="-75.69986">
    <ele>63.96</ele>
   </trkpt>
   <trkpt lat="45.396010000000004" lon="-75.70063">
    <ele>63.76000000000001</ele>
   </trkpt>
   <trkpt lat="45.39634" lon="-75.70107">
    <ele>63.73000000000001</ele>
   </trkpt>
   <trkpt lat="45.396480000000004" lon="-75.70128000000001">
    <ele>63.72</ele>
   </trkpt>
   <trkpt lat="45.39676" lon="-75.70183">
    <ele>63.85</ele>
   </trkpt>
   <trkpt lat="45.39693500158504" lon="-75.70243999797704">
    <ele>63.87000000000001</ele>
   </trkpt>
   <trkpt lat="45.397110000000005" lon="-75.70305">
    <ele>63.87000000000001</ele>
   </trkpt>
   <trkpt lat="45.39741" lon="-75.70382000000001">
    <ele>64.26</ele>
   </trkpt>
   <trkpt lat="45.397650000000006" lon="-75.70450000000001">
    <ele>63.73000000000001</ele>
   </trkpt>
   <trkpt lat="45.397670000000005" lon="-75.70492">
    <ele>63.73000000000001</ele>
   </trkpt>
   <trkpt lat="45.397650000000006" lon="-75.70506">
    <ele>63.80000000000001</ele>
   </trkpt>
   <trkpt lat="45.39761" lon="-75.70521000000001">
    <ele>63.80000000000001</ele>
   </trkpt>
   <trkpt lat="45.39753" lon="-75.70540000000001">
    <ele>64.09</ele>
   </trkpt>
   <trkpt lat="45.39741" lon="-75.70555">
    <ele>64.09</ele>
   </trkpt>
   <trkpt lat="45.39684500118208" lon="-75.70607000519713">
    <ele>64.48</ele>
   </trkpt>
   <trkpt lat="45.396280000000004" lon="-75.70659">
    <ele>65.0</ele>
   </trkpt>
   <trkpt lat="45.39622000000001" lon="-75.70662">
    <ele>65.07000000000001</ele>
   </trkpt>
   <trkpt lat="45.396170000000005" lon="-75.70657">
    <ele>64.97</ele>
   </trkpt>
   <trkpt lat="45.396" lon="-75.70626">
    <ele>65.07000000000001</ele>
   </trkpt>
   <trkpt lat="45.39591" lon="-75.70617">
    <ele>65.35000000000001</ele>
   </trkpt>
   <trkpt lat="45.39585" lon="-75.70619">
    <ele>65.35000000000001</ele>
   </trkpt>
   <trkpt lat="45.39576" lon="-75.70626">
    <ele>65.65</ele>
   </trkpt>
   <trkpt lat="45.39567" lon="-75.7064">
    <ele>65.65</ele>
   </trkpt>
   <trkpt lat="45.39562" lon="-75.70625000000001">
    <ele>65.59</ele>
   </trkpt>
   <trkpt lat="45.39558" lon="-75.70595">
    <ele>65.53</ele>
   </trkpt>
   <trkpt lat="45.39551" lon="-75.70583">
    <ele>65.53</ele>
   </trkpt>
   <trkpt lat="45.395390000000006" lon="-75.70573">
    <ele>65.48</ele>
   </trkpt>
   <trkpt lat="45.39526" lon="-75.70576000000001">
    <ele>65.48</ele>
   </trkpt>
   <trkpt lat="45.39517" lon="-75.70564">
    <ele>65.41000000000001</ele>
   </trkpt>
   <trkpt lat="45.39504" lon="-75.70559">
    <ele>65.30000000000001</ele>
   </trkpt>
   <trkpt lat="45.39491" lon="-75.70547">
    <ele>65.29</ele>
   </trkpt>
   <trkpt lat="45.394780000000004" lon="-75.70528">
    <ele>65.14999999999999</ele>
   </trkpt>
   <trkpt lat="45.39453" lon="-75.70472000000001">
    <ele>64.74000000000001</ele>
   </trkpt>
   <trkpt lat="45.39434000000001" lon="-75.70443">
    <ele>64.02000000000001</ele>
   </trkpt>
   <trkpt lat="45.39426" lon="-75.70406000000001">
    <ele>63.82</ele>
   </trkpt>
   <trkpt lat="45.394200000000005" lon="-75.70393">
    <ele>63.82</ele>
   </trkpt>
   <trkpt lat="45.39414000000001" lon="-75.70385">
    <ele>63.85</ele>
   </trkpt>
   <trkpt lat="45.394070000000006" lon="-75.70384">
    <ele>63.85</ele>
   </trkpt>
   <trkpt lat="45.39397" lon="-75.70387000000001">
    <ele>63.85</ele>
   </trkpt>
   <trkpt lat="45.393620000000006" lon="-75.70402">
    <ele>63.82</ele>
   </trkpt>
   <trkpt lat="45.393510000000006" lon="-75.70403">
    <ele>63.84</ele>
   </trkpt>
   <trkpt lat="45.393170000000005" lon="-75.70402">
    <ele>64.25</ele>
   </trkpt>
   <trkpt lat="45.393100000000004" lon="-75.70398">
    <ele>64.25</ele>
   </trkpt>
   <trkpt lat="45.39303" lon="-75.70391000000001">
    <ele>64.32000000000001</ele>
   </trkpt>
   <trkpt lat="45.39262" lon="-75.7029">
    <ele>64.17</ele>
   </trkpt>
   <trkpt lat="45.39231" lon="-75.70223">
    <ele>64.14</ele>
   </trkpt>
   <trkpt lat="45.392140000000005" lon="-75.70196">
    <ele>64.19000000000001</ele>
   </trkpt>
   <trkpt lat="45.391760000000005" lon="-75.70156">
    <ele>64.02000000000001</ele>
   </trkpt>
   <trkpt lat="45.391630000000006" lon="-75.70148">
    <ele>64.03</ele>
   </trkpt>
   <trkpt lat="45.39148" lon="-75.70147">
    <ele>64.13000000000001</ele>
   </trkpt>
   <trkpt lat="45.391310000000004" lon="-75.70148">
    <ele>64.14999999999999</ele>
   </trkpt>
   <trkpt lat="45.39086" lon="-75.70167000000001">
    <ele>64.12</ele>
   </trkpt>
   <trkpt lat="45.39063" lon="-75.70169">
    <ele>63.99</ele>
   </trkpt>
   <trkpt lat="45.3905" lon="-75.70174">
    <ele>63.99</ele>
   </trkpt>
   <trkpt lat="45.39023" lon="-75.70173000000001">
    <ele>63.85</ele>
   </trkpt>
   <trkpt lat="45.389990000000004" lon="-75.70147">
    <ele>64.03999999999999</ele>
   </trkpt>
   <trkpt lat="45.389660000000006" lon="-75.70146000000001">
    <ele>64.02000000000001</ele>
   </trkpt>
   <trkpt lat="45.38946000000001" lon="-75.70147">
    <ele>63.78</ele>
   </trkpt>
   <trkpt lat="45.389210000000006" lon="-75.70143">
    <ele>63.660000000000004</ele>
   </trkpt>
   <trkpt lat="45.38893" lon="-75.70126">
    <ele>63.74</ele>
   </trkpt>
   <trkpt lat="45.38870000000001" lon="-75.70108">
    <ele>63.81</ele>
   </trkpt>
   <trkpt lat="45.38802499996885" lon="-75.70091499799298">
    <ele>64.02000000000001</ele>
   </trkpt>
   <trkpt lat="45.387350000000005" lon="-75.70075">
    <ele>64.46000000000001</ele>
   </trkpt>
   <trkpt lat="45.386700000000005" lon="-75.70057000000001">
    <ele>64.53999999999999</ele>
   </trkpt>
   <trkpt lat="45.386095000141644" lon="-75.70041499835055">
    <ele>64.69000000000001</ele>
   </trkpt>
   <trkpt lat="45.385490000000004" lon="-75.70026">
    <ele>64.80000000000001</ele>
   </trkpt>
   <trkpt lat="45.384820000000005" lon="-75.70019">
    <ele>67.18</ele>
   </trkpt>
   <trkpt lat="45.384370000000004" lon="-75.70017">
    <ele>70.20000000000002</ele>
   </trkpt>
   <trkpt lat="45.38402000000001" lon="-75.70021000000001">
    <ele>71.83</ele>
   </trkpt>
   <trkpt lat="45.38401" lon="-75.70014">
    <ele>71.83</ele>
   </trkpt>
   <trkpt lat="45.38398" lon="-75.70008">
    <ele>71.73</ele>
   </trkpt>
   <trkpt lat="45.38401" lon="-75.69988000000001">
    <ele>70.68</ele>
   </trkpt>
   <trkpt lat="45.383970000000005" lon="-75.69964">
    <ele>69.42</ele>
   </trkpt>
   <trkpt lat="45.3838" lon="-75.69967000000001">
    <ele>69.58</ele>
   </trkpt>
   <trkpt lat="45.383700000000005" lon="-75.6997">
    <ele>69.58</ele>
   </trkpt>
   <trkpt lat="45.38326000000001" lon="-75.70013">
    <ele>70.15</ele>
   </trkpt>
   <trkpt lat="45.382646668478976" lon="-75.7005900100063">
    <ele>70.37</ele>
   </trkpt>
   <trkpt lat="45.38203333511149" lon="-75.70105001003175">
    <ele>70.91</ele>
   </trkpt>
   <trkpt lat="45.381420000000006" lon="-75.70151000000001">
    <ele>70.83</ele>
   </trkpt>
   <trkpt lat="45.38105" lon="-75.70165">
    <ele>70.72</ele>
   </trkpt>
   <trkpt lat="45.38078" lon="-75.70174">
    <ele>70.81000000000002</ele>
   </trkpt>
   <trkpt lat="45.38051" lon="-75.70174">
    <ele>70.78</ele>
   </trkpt>
   <trkpt lat="45.3797850000394" lon="-75.70168499788429">
    <ele>71.07000000000001</ele>
   </trkpt>
   <trkpt lat="45.37906000005238" lon="-75.70162999717908">
    <ele>71.03000000000002</ele>
   </trkpt>
   <trkpt lat="45.37833500003895" lon="-75.70157499788432">
    <ele>70.91</ele>
   </trkpt>
   <trkpt lat="45.377610000000004" lon="-75.70152">
    <ele>70.83</ele>
   </trkpt>
   <trkpt lat="45.37709000001986" lon="-75.7015350001374">
    <ele>71.01</ele>
   </trkpt>
   <trkpt lat="45.37657" lon="-75.70155000000001">
    <ele>71.05</ele>
   </trkpt>
   <trkpt lat="45.37644" lon="-75.70156">
    <ele>71.05</ele>
   </trkpt>
   <trkpt lat="45.37585000000001" lon="-75.70186000000001">
    <ele>71.02</ele>
   </trkpt>
   <trkpt lat="45.375550000000004" lon="-75.70205">
    <ele>71.08</ele>
   </trkpt>
   <trkpt lat="45.37536" lon="-75.70208000000001">
    <ele>71.08</ele>
   </trkpt>
   <trkpt lat="45.3751" lon="-75.7021">
    <ele>71.01</ele>
   </trkpt>
   <trkpt lat="45.374880000000005" lon="-75.70202">
    <ele>71.01</ele>
   </trkpt>
   <trkpt lat="45.37404" lon="-75.7016">
    <ele>71.05</ele>
   </trkpt>
   <trkpt lat="45.373406668312754" lon="-75.70116999039125">
    <ele>71.2</ele>
   </trkpt>
   <trkpt lat="45.37277333501201" lon="-75.70073999041354">
    <ele>71.2</ele>
   </trkpt>
   <trkpt lat="45.37214" lon="-75.70031">
    <ele>71.46000000000001</ele>
   </trkpt>
   <trkpt lat="45.37160500032636" lon="-75.70004499750314">
    <ele>71.41</ele>
   </trkpt>
   <trkpt lat="45.37107" lon="-75.69978">
    <ele>71.48</ele>
   </trkpt>
   <trkpt lat="45.370810000000006" lon="-75.69958000000001">
    <ele>71.56000000000002</ele>
   </trkpt>
   <trkpt lat="45.3706" lon="-75.69926000000001">
    <ele>72.34</ele>
   </trkpt>
   <trkpt lat="45.37037" lon="-75.69896">
    <ele>73.76</ele>
   </trkpt>
   <trkpt lat="45.37026" lon="-75.69893">
    <ele>77.18</ele>
   </trkpt>
   <trkpt lat="45.37022" lon="-75.69896">
    <ele>77.18</ele>
   </trkpt>
   <trkpt lat="45.370200000000004" lon="-75.69899000000001">
    <ele>77.43</ele>
   </trkpt>
   <trkpt lat="45.37013" lon="-75.69905">
    <ele>77.47000000000001</ele>
   </trkpt>
   <trkpt lat="45.370110000000004" lon="-75.69914">
    <ele>77.42</ele>
   </trkpt>
   <trkpt lat="45.36999" lon="-75.69926000000001">
    <ele>76.94000000000001</ele>
   </trkpt>
   <trkpt lat="45.36994000000001" lon="-75.69935000000001">
    <ele>76.84</ele>
   </trkpt>
   <trkpt lat="45.369800000000005" lon="-75.69946">
    <ele>77.97000000000001</ele>
   </trkpt>
   <trkpt lat="45.369600000000005" lon="-75.69946">
    <ele>80.39</ele>
   </trkpt>
   <trkpt lat="45.369440000000004" lon="-75.69935000000001">
    <ele>80.51</ele>
   </trkpt>
   <trkpt lat="45.36921" lon="-75.69981">
    <ele>81.34</ele>
   </trkpt>
   <trkpt lat="45.369060000000005" lon="-75.7">
    <ele>81.37</ele>
   </trkpt>
   <trkpt lat="45.368900000000004" lon="-75.70016000000001">
    <ele>81.28</ele>
   </trkpt>
   <trkpt lat="45.36863" lon="-75.70068">
    <ele>81.46000000000001</ele>
   </trkpt>
   <trkpt lat="45.36862000000001" lon="-75.70068">
    <ele>81.46000000000001</ele>
   </trkpt>
   <trkpt lat="45.368640000000006" lon="-75.70094">
    <ele>81.7</ele>
   </trkpt>
   <trkpt lat="45.36874" lon="-75.70125">
    <ele>81.53</ele>
   </trkpt>
   <trkpt lat="45.36919" lon="-75.70151000000001">
    <ele>81.68</ele>
   </trkpt>
   <trkpt lat="45.36947000000001" lon="-75.70174">
    <ele>81.51</ele>
   </trkpt>
   <trkpt lat="45.36966" lon="-75.70194000000001">
    <ele>81.57000000000001</ele>
   </trkpt>
   <trkpt lat="45.36977" lon="-75.70212000000001">
    <ele>81.96000000000001</ele>
   </trkpt>
   <trkpt lat="45.369980000000005" lon="-75.70251">
    <ele>81.94000000000001</ele>
   </trkpt>
   <trkpt lat="45.370050000000006" lon="-75.70243">
    <ele>81.97</ele>
   </trkpt>
   <trkpt lat="45.37017" lon="-75.70232">
    <ele>81.28</ele>
   </trkpt>
   <trkpt lat="45.370580000000004" lon="-75.70134">
    <ele>80.99000000000001</ele>
   </trkpt>
   <trkpt lat="45.37089" lon="-75.70163000000001">
    <ele>80.99000000000001</ele>
   </trkpt>
  </trkseg>
 </trk>
</gpx>
